GLOBAL-17               
1 49949U 21120A   26060.12306251  .00028554  00000+0  56500-3 0  9997
2 49949  41.9974 330.5263 0011405 221.6116 138.3859 15.46434654238139
GLOBAL-16               
1 49950U 21120B   26060.13841277  .00026579  00000+0  55590-3 0  9995
2 49950  41.9970 332.4091 0009222 213.2283 146.7980 15.44870369238103
XW-3 (CAS-9)            
1 50466U 21131B   26060.52018718  .00000682  00000+0  22486-3 0  9995
2 50466  98.4969 153.5227 0005159  69.5869 290.5873 14.41238310219605
ION SCV-004             
1 50993U 22002K   26060.11741210  .00006371  00000+0  22700-3 0  9993
2 50993  97.2989 119.8185 0008135  31.2078 328.9644 15.29240445228771
ETV-A1                  
1 51060U 22002CE  26060.50689144  .00013717  00000+0  36630-3 0  9998
2 51060  97.3015 127.2456 0005698  30.1413 330.0159 15.38205431229271
BRO-5                   
1 51061U 22002CF  26060.47786251  .00015230  00000+0  34567-3 0  9991
2 51061  97.3113 133.5278 0005141  18.7880 341.3557 15.43128528229629
LUDI TANCE 1-01A (L-SA*)
1 51284U 22007A   26060.55085546  .00000634  00000+0  74249-4 0  9995
2 51284  97.8115  69.5062 0001619  91.1713 268.9690 14.88409447222465
INSPIRESAT 1            
1 51657U 22013B   26060.09526899  .00133457  00000+0  86075-3 0  9995
2 51657  97.4505 106.9095 0005316 105.0843 255.1011 15.75729072225528
LUDI TANCE 1-01B (L-SA*)
1 51822U 22018A   26060.51720420  .00000174  00000+0  24627-4 0  9992
2 51822  97.8122  69.4617 0001606  90.5408 269.5993 14.88412007217694
2022-019D               
1 51827U 22019D   26060.52037891  .00056509  00000+0  75252-3 0  9994
2 51827  97.3711 148.2660 0007303 168.9888 191.1529 15.57944092222876
JILIN-1 GAOFEN 03D14    
1 51831U 22019H   26060.48635714  .00179323  00000+0  11199-2 0  9991
2 51831  97.3714 153.1897 0005125 167.8507 192.2883 15.76343276223185
2022-019J               
1 51832U 22019J   26060.52025808  .00005684  00000+0  26744-3 0  9995
2 51832  97.3563 126.0891 0007363 240.4301 119.6201 15.19922869221449
JILIN-1 GAOFEN 03D16    
1 51834U 22019L   26060.18291493  .00256507  00000+0  12297-2 0  9993
2 51834  97.3716 154.1046 0004305 190.6199 169.4979 15.82036635223229
JILIN-1 GAOFEN 03D11    
1 51835U 22019M   26060.54837231  .00181769  00000+0  12463-2 0  9992
2 51835  97.3754 153.2647 0004520 183.4619 176.6615 15.74178589223183
JILIN-1 GAOFEN 03D15    
1 51839U 22019R   26060.51153166  .00108313  00000+0  10060-2 0  9996
2 51839  97.3711 151.3166 0004257 188.3015 171.8176 15.67083192223081
JILIN-1 GAOFEN 03D10    
1 51840U 22019S   26060.49185924  .00158488  00000+0  10920-2 0  9995
2 51840  97.3715 153.2053 0001597 210.9592 149.1578 15.74140054223194
JILIN-1 GAOFEN 03D12    
1 51841U 22019T   26060.51120020  .00110570  00000+0  10142-2 0  9991
2 51841  97.3686 151.2263 0003129 162.7786 197.3582 15.67390581223087
JILIN-1 GAOFEN 03D18    
1 51844U 22019W   26060.21496933  .00162571  00000+0  11459-2 0  9990
2 51844  97.3695 151.9982 0005948 163.8862 196.2592 15.73578191223017
2022-023F               
1 51951U 22023F   26060.56573860  .00007759  00000+0  32536-3 0  9993
2 51951  63.4561 279.2919 0118138 343.5763  16.1534 15.18080633221370
CZ-4C R/B               
1 52085U 22027B   26060.21468262 -.00000070  00000+0  26007-4 0  9994
2 52085  63.3964 346.3535 0222922  22.9965 338.0865 13.65471569197292
MERIDIAN 10             
1 52145U 22030A   26060.30367909  .00000241  00000+0  00000+0 0  9990
2 52145  62.6649 152.3163 6757675 272.9566  17.8280  2.00609364 28863
OMNI-L1                 
1 52157U 22033A   26060.45951516  .00002782  00000+0  35470-3 0  9990
2 52157  97.8455 141.7453 0003900 274.9636  85.1132 14.82281060211493
ENMAP                   
1 52159U 22033C   26060.50508381  .00000408  00000+0  68197-4 0  9992
2 52159  97.9782 144.2864 0001034  81.8734 278.2592 14.74955293210786
ARCSAT-1                
1 52161U 22033E   26060.20693881  .00014859  00000+0  26071-3 0  9991
2 52161  97.2747 151.1247 0004578 215.0081 145.0870 15.50632976218959
GLOBAL-18               
1 52196U 22034B   26060.35565338  .00024907  00000+0  58971-3 0  9990
2 52196  52.9828  50.2756 0002600 301.5710  58.5039 15.41651811220309
GAOFEN-3 03             
1 52200U 22035A   26060.55503981  .00000233  00000+0  83793-4 0  9992
2 52200  98.4108  70.6791 0001341 100.5902 259.5438 14.42226259205333
DAQI 1                  
1 52257U 22039A   26060.51116418  .00000303  00000+0  76308-4 0  9991
2 52257  98.1389   1.6495 0002556 210.2762 149.8289 14.57645422206250
JILIN-1 GAOFEN 3D05     
1 52390U 22046C   26060.30049838  .00186089  00000+0  11804-2 0  9999
2 52390  97.4797 173.9692 0003004 237.7323 122.3651 15.75976162213606
BRO-6                   
1 52422U 22047AE  26060.52024161  .00015604  00000+0  34289-3 0  9999
2 52422  97.3437 150.0470 0005861 101.6269 258.5638 15.44084049214500
JILIN-1 GAOFEN 3D27     
1 52444U 22048B   26060.46147385  .00070731  00000+0  96011-3 0  9994
2 52444  97.5644 166.3728 0005100  88.6817 271.5022 15.57388967212624
