OBJECT_NAME,OBJECT_ID,EPOCH,MEAN_MOTION,ECCENTRICITY,INCLINATION,RA_OF_ASC_NODE,ARG_OF_PERICENTER,MEAN_ANOMALY,EPHEMERIS_TYPE,CLASSIFICATION_TYPE,NORAD_CAT_ID,ELEMENT_SET_NO,REV_AT_EPOCH,BSTAR,MEAN_MOTION_DOT,MEAN_MOTION_DDOT
GLOBAL-17,2021-120A,2026-03-01T02:57:12.600864,15.46434654,.00114056,41.9974,330.5263,221.6116,138.3859,0,U,49949,999,23813,.56500116E-3,.28554E-3,0
GLOBAL-16,2021-120B,2026-03-01T03:19:18.863328,15.44870369,.00092227,41.9970,332.4091,213.2283,146.7980,0,U,49950,999,23810,.55590163E-3,.26579E-3,0
XW-3 (CAS-9),2021-131B,2026-03-01T12:29:04.172352,14.41238310,.0005159,98.4969,153.5227,69.5869,290.5873,0,U,50466,999,21960,.22486E-3,.682E-5,0
ION SCV-004,2022-002K,2026-03-01T02:49:04.405440,15.29240445,.00081358,97.2989,119.8185,31.2078,328.9644,0,U,50993,999,22877,.22699985E-3,.6371E-4,0
ETV-A1,2022-002CE,2026-03-01T12:09:55.420416,15.38205431,.0005698,97.3015,127.2456,30.1413,330.0159,0,U,51060,999,22927,.3663E-3,.13717E-3,0
BRO-5,2022-002CF,2026-03-01T11:28:07.320864,15.43128528,.0005141,97.3113,133.5278,18.7880,341.3557,0,U,51061,999,22962,.34567E-3,.1523E-3,0
LUDI TANCE 1-01A (L-SAR 01A),2022-007A,2026-03-01T13:13:13.911744,14.88409447,.0001619,97.8115,69.5062,91.1713,268.9690,0,U,51284,999,22246,.74249E-4,.634E-5,0
INSPIRESAT 1,2022-013B,2026-03-01T02:17:11.240736,15.75729072,.00053168,97.4505,106.9095,105.0843,255.1011,0,U,51657,999,22552,.86075313E-3,.133457E-2,0
LUDI TANCE 1-01B (L-SAR 01B),2022-018A,2026-03-01T12:24:46.442880,14.88412007,.0001606,97.8122,69.4617,90.5408,269.5993,0,U,51822,999,21769,.24627E-4,.174E-5,0
2022-019D,2022-019D,2026-03-01T12:29:20.737824,15.57944092,.0007303,97.3711,148.2660,168.9888,191.1529,0,U,51827,999,22287,.75252E-3,.56509E-3,0
JILIN-1 GAOFEN 03D14,2022-019H,2026-03-01T11:40:21.256896,15.76343276,.0005125,97.3714,153.1897,167.8507,192.2883,0,U,51831,999,22318,.11199E-2,.179323E-2,0
2022-019J,2022-019J,2026-03-01T12:29:10.298112,15.19922869,.0007363,97.3563,126.0891,240.4301,119.6201,0,U,51832,999,22144,.26744E-3,.5684E-4,0
JILIN-1 GAOFEN 03D16,2022-019L,2026-03-01T04:23:23.849952,15.82036635,.00043059,97.3716,154.1046,190.6199,169.4979,0,U,51834,999,22322,.12296524E-2,.256507E-2,0
JILIN-1 GAOFEN 03D11,2022-019M,2026-03-01T13:09:39.367584,15.74178589,.000452,97.3754,153.2647,183.4619,176.6615,0,U,51835,999,22318,.12463E-2,.181769E-2,0
JILIN-1 GAOFEN 03D15,2022-019R,2026-03-01T12:16:36.335424,15.67083192,.0004257,97.3711,151.3166,188.3015,171.8176,0,U,51839,999,22308,.1006E-2,.108313E-2,0
JILIN-1 GAOFEN 03D10,2022-019S,2026-03-01T11:48:16.638336,15.74140054,.0001597,97.3715,153.2053,210.9592,149.1578,0,U,51840,999,22319,.1092E-2,.158488E-2,0
JILIN-1 GAOFEN 03D12,2022-019T,2026-03-01T12:16:07.697280,15.67390581,.0003129,97.3686,151.2263,162.7786,197.3582,0,U,51841,999,22308,.10142E-2,.11057E-2,0
JILIN-1 GAOFEN 03D18,2022-019W,2026-03-01T05:09:33.350112,15.73578191,.00059485,97.3695,151.9982,163.8862,196.2592,0,U,51844,999,22301,.11458528E-2,.162571E-2,0
2022-023F,2022-023F,2026-03-01T13:34:39.815040,15.18080633,.0118138,63.4561,279.2919,343.5763,16.1534,0,U,51951,999,22137,.32536E-3,.7759E-4,0
CZ-4C R/B,2022-027B,2026-03-01T05:09:08.578368,13.65471569,.0222922,63.3964,346.3535,22.9965,338.0865,0,U,52085,999,19729,.26007E-4,-.7E-6,0
MERIDIAN 10,2022-030A,2026-03-01T07:17:17.873376,2.00609364,.6757675,62.6649,152.3163,272.9566,17.8280,0,U,52145,999,2886,0,.241E-5,0
OMNI-L1,2022-033A,2026-03-01T11:01:42.109824,14.82281060,.00039,97.8455,141.7453,274.9636,85.1132,0,U,52157,999,21149,.3547E-3,.2782E-4,0
ENMAP,2022-033C,2026-03-01T12:07:19.241184,14.74955293,.0001034,97.9782,144.2864,81.8734,278.2592,0,U,52159,999,21078,.68197E-4,.408E-5,0
ARCSAT-1,2022-033E,2026-03-01T04:57:59.513184,15.50632976,.0004578,97.2747,151.1247,215.0081,145.0870,0,U,52161,999,21895,.26071E-3,.14859E-3,0
GLOBAL-18,2022-034B,2026-03-01T08:32:08.452032,15.41651811,.00026,52.9828,50.2756,301.5710,58.5039,0,U,52196,999,22030,.58971E-3,.24907E-3,0
GAOFEN-3 03,2022-035A,2026-03-01T13:19:15.439584,14.42226259,.0001341,98.4108,70.6791,100.5902,259.5438,0,U,52200,999,20533,.83793E-4,.233E-5,0
DAQI 1,2022-039A,2026-03-01T12:16:04.585152,14.57645422,.0002556,98.1389,1.6495,210.2762,149.8289,0,U,52257,999,20625,.76308E-4,.303E-5,0
JILIN-1 GAOFEN 3D05,2022-046C,2026-03-01T07:12:43.060032,15.75976162,.0003004,97.4797,173.9692,237.7323,122.3651,0,U,52390,999,21360,.11804E-2,.186089E-2,0
BRO-6,2022-047AE,2026-03-01T12:29:08.875104,15.44084049,.0005861,97.3437,150.0470,101.6269,258.5638,0,U,52422,999,21450,.34289E-3,.15604E-3,0
JILIN-1 GAOFEN 3D27,2022-048B,2026-03-01T11:04:31.340640,15.57388967,.00051,97.5644,166.3728,88.6817,271.5022,0,U,52444,999,21262,.96011E-3,.70731E-3,0
